<?xml version="1.0" encoding="UTF-8"?>
<kml xmlns="http://www.opengis.net/kml/2.2" xmlns:gx="http://www.google.com/kml/ext/2.2" xmlns:kml="http://www.opengis.net/kml/2.2" xmlns:atom="http://www.w3.org/2005/Atom">
<Document id="KmlFile">
	<gx:CascadingStyle kml:id="__managed_style_0251C5B15141FEB918C3_highlight">
		<Style>
			<IconStyle>
				<scale>1.2</scale>
				<Icon>
					<href>https://earth.google.com/earth/document/icon?color=1976d2&amp;id=2000&amp;scale=4</href>
				</Icon>
				<hotSpot x="64" y="128" xunits="pixels" yunits="insetPixels"/>
			</IconStyle>
			<LabelStyle>
			</LabelStyle>
			<LineStyle>
				<color>ff2dc0fb</color>
				<width>3</width>
			</LineStyle>
			<PolyStyle>
				<color>40ffffff</color>
			</PolyStyle>
			<BalloonStyle>
			</BalloonStyle>
		</Style>
	</gx:CascadingStyle>
	<gx:CascadingStyle kml:id="__managed_style_0251C5B15141FEB918C3_normal">
		<Style>
			<IconStyle>
				<Icon>
					<href>https://earth.google.com/earth/document/icon?color=1976d2&amp;id=2000&amp;scale=4</href>
				</Icon>
				<hotSpot x="64" y="128" xunits="pixels" yunits="insetPixels"/>
			</IconStyle>
			<LabelStyle>
			</LabelStyle>
			<LineStyle>
				<color>ff2dc0fb</color>
				<width>2</width>
			</LineStyle>
			<PolyStyle>
				<color>40ffffff</color>
			</PolyStyle>
			<BalloonStyle>
			</BalloonStyle>
		</Style>
	</gx:CascadingStyle>
	<StyleMap id="__managed_style_0251C5B15141FEB918C3">
		<Pair>
			<key>normal</key>
			<styleUrl>#__managed_style_0251C5B15141FEB918C3_normal</styleUrl>
		</Pair>
		<Pair>
			<key>highlight</key>
			<styleUrl>#__managed_style_0251C5B15141FEB918C3_highlight</styleUrl>
		</Pair>
	</StyleMap>
	<Placemark id="00CF6F01B341FEC03AB0">
		<name>Untitled polygon</name>
		<LookAt>
			<longitude>-86.9446488568595</longitude>
			<latitude>40.43803125190227</latitude>
			<altitude>207.6184966194124</altitude>
			<heading>359.8817898045789</heading>
			<tilt>0</tilt>
			<gx:fovy>35</gx:fovy>
			<range>400.2589233501203</range>
			<altitudeMode>absolute</altitudeMode>
		</LookAt>
		<styleUrl>#__managed_style_0251C5B15141FEB918C3</styleUrl>
		<Polygon>
			<outerBoundaryIs>
				<LinearRing>
					<coordinates>
						-86.94485274317502,40.43795596355609,0 -86.94485576302883,40.43793068957216,0 -86.94484797175357,40.43790543198849,0 -86.94483242387425,40.4378743078689,0 -86.94444667182248,40.4376915684722,0 -86.94409876710198,40.43753525181366,0 -86.9440562375755,40.43752128095304,0 -86.94401918890844,40.4375201802297,0 -86.94398296958339,40.43752892945421,0 -86.94384203174003,40.43763028750415,0 -86.94378668114111,40.43766973938108,0 -86.94375445993828,40.43770860735664,0 -86.9437626235522,40.43829225439239,0 -86.94377302322553,40.43832953578344,0 -86.94380629364041,40.43835581714215,0 -86.94386088571765,40.4383798053307,0 -86.9439138781169,40.43836569900463,0 -86.94396095731986,40.43834152976097,0 -86.94396541097613,40.4382961590844,0 -86.94397714575408,40.43823099591751,0 -86.94399920774509,40.43818712675608,0 -86.94404496849299,40.43815555378144,0 -86.9440925725616,40.43812399064049,0 -86.94413499735721,40.43809512954697,0 -86.94414447335114,40.43805570211972,0 -86.94410405568574,40.43800772154929,0 -86.94407802280608,40.43798068450403,0 -86.94404288711307,40.43795521833292,0 -86.94402945183882,40.43792534065682,0 -86.94405168281492,40.43788368021717,0 -86.94408640222126,40.4378502662375,0 -86.94417363471065,40.43783288899039,0 -86.94428444863944,40.4378589196755,0 -86.94438268572274,40.43791167453217,0 -86.94441788239105,40.43798877061637,0 -86.94442551756576,40.43806654950566,0 -86.94439984290437,40.43812181401327,0 -86.94438092335177,40.43819050276629,0 -86.94436796140981,40.43826185733135,0 -86.94438510572559,40.43831063671556,0 -86.94442131389398,40.43834481914352,0 -86.94446042431682,40.43836557540943,0 -86.94452903720915,40.43837003090889,0 -86.94457627374996,40.43837054480292,0 -86.94461615349594,40.43836884457925,0 -86.94466793347173,40.43834978505554,0 -86.94469605253498,40.43834246871982,0 -86.94471597025806,40.43831488483661,0 -86.94472414362156,40.4382856454373,0 -86.94473155054382,40.43824792472232,0 -86.94473153670882,40.43821581597808,0 -86.94472860992487,40.43819214132673,0 -86.9447149557835,40.4381657983207,0 -86.94470570661129,40.43814717870801,0 -86.94469303692345,40.43812646239195,0 -86.94467835175952,40.43809967138758,0 -86.94467837523429,40.43806884452017,0 -86.94470501900568,40.43803692309073,0 -86.94472162776221,40.43802220584362,0 -86.94475027294962,40.43801101744209,0 -86.94478367140962,40.438000828253,0 -86.94481488250413,40.43799115412965,0 -86.94484144883506,40.43798199580483,0 -86.94485274317502,40.43795596355609,0 
					</coordinates>
				</LinearRing>
			</outerBoundaryIs>
		</Polygon>
	</Placemark>
</Document>
</kml>
<?earth data="CsgRCsURCp0RChQwMENGNkYwMUIzNDFGRUMwM0FCMBKXEBJOChIZ6cV2aBE4REAhlZp6IHW8VcARAyJsucrzaUAYASHOSaDPG352QCkAAAAAAAAAADEAj8-MJAR5QEEAAAAAAIBBQEkAAAAAAAAAAFABGAEiEFVudGl0bGVkIHBvbHlnb25AAkquDxKrDxqoDwqhDwodChIZ4kfm8A44REAhP96jd3i8VcApAAAAAAAAAAAKHQoSGUbQ4hwOOERAIVdpToR4vFXAKQAAAAAAAAAACh0KEhnPkAJJDThEQCHol6BjeLxVwCkAAAAAAAAAAAodChIZHQfsQww4REAhYS9qIni8VcApAAAAAAAAAAAKHQoSGVkp_kYGOERAIcoSdNBxvFXAKQAAAAAAAAAACh0KEhmCsbYnAThEQCFnOTwdbLxVwCkAAAAAAAAAAAodChIZqH-EsgA4REAhLn7aamu8VcApAAAAAAAAAAAKHQoSGZq2SKkAOERAISDKdc9qvFXAKQAAAAAAAAAACh0KEhmlh63yADhEQCHdlYs3arxVwCkAAAAAAAAAAAodChIZ4kjuRAQ4REAhebpo6Ge8VcApAAAAAAAAAAAKHQoSGZiL4I8FOERAIbF5QABnvFXAKQAAAAAAAAAACh0KEhki4-zVBjhEQCHmOBt5ZrxVwCkAAAAAAAAAAAodChIZTFrp9Rk4REAhAtZYm2a8VcApAAAAAAAAAAAKHQoSGcaHpi4bOERAIXJm98ZmvFXAKQAAAAAAAAAACh0KEhmFUR0LHDhEQCFzPINSZ7xVwCkAAAAAAAAAAAodChIZpI9X1Bw4REAhYQh9N2i8VcApAAAAAAAAAAAKHQoSGeB0Al4cOERAISswwRVpvFXAKQAAAAAAAAAACh0KEhmnZkOTGzhEQCHwGDjbabxVwCkAAAAAAAAAAAodChIZbp2qFho4REAhpyzm7Wm8VcApAAAAAAAAAAAKHQoSGZTHCfQXOERAIdpLHh9qvFXAKQAAAAAAAAAACh0KEhkIeQmEFjhEQCHELad7arxVwCkAAAAAAAAAAAodChIZqgYvexU4REAhXmiWO2u8VcApAAAAAAAAAAAKHQoSGWyyaXIUOERAIRzjQANsvFXAKQAAAAAAAAAACh0KEhl2-E6AEzhEQCEhKjK1bLxVwCkAAAAAAAAAAAodChIZGzeRNRI4REAhgu_w3Gy8VcApAAAAAAAAAAAKHQoSGY-5E6MQOERAIT3MajNsvFXAKQAAAAAAAAAACh0KEhm8HEbADzhEQCHENDrGa7xVwCkAAAAAAAAAAAodChIZHO2l6g44REAhA4vbMmu8VcApAAAAAAAAAAAKHQoSGfgaBPANOERAIfKGgfpqvFXAKQAAAAAAAAAACh0KEhkQ_oqSDDhEQCEg279Xa7xVwCkAAAAAAAAAAAodChIZegQ_egs4REAh34hf6Wu8VcApAAAAAAAAAAAKHQoSGdipeegKOERAIfm0QFdtvFXAKQAAAAAAAAAACh0KEhlTItbCCzhEQCHHQQoob7xVwCkAAAAAAAAAAAodChIZfVNgfQ04REAhn4UTxHC8VcApAAAAAAAAAAAKHQoSGQLoGgQQOERAISOos1dxvFXAKQAAAAAAAAAACh0KEhmXzI-QEjhEQCH73Ll3cbxVwCkAAAAAAAAAAAodChIZ9GwnYBQ4REAhzOcJDHG8VcApAAAAAAAAAAAKHQoSGUZmW6AWOERAIccwr7xwvFXAKQAAAAAAAAAACh0KEhlDKez2GDhEQCFNaVGGcLxVwCkAAAAAAAAAAAodChIZVBcdkBo4REAh8Po5znC8VcApAAAAAAAAAAAKHQoSGdZL264bOERAIXs0GGZxvFXAKQAAAAAAAAAACh0KEhmyCflcHDhEQCGmsyIKcrxVwCkAAAAAAAAAAAodChIZbSZZghw4REAh4jvrKXO8VcApAAAAAAAAAAAKHQoSGai6qIYcOERAIVoVC_BzvFXAKQAAAAAAAAAACh0KEhnPhmV4HDhEQCF1ok-XdLxVwCkAAAAAAAAAAAodChIZ14KD2Bs4REAh0_V9cHW8VcApAAAAAAAAAAAKHQoSGb7MI5sbOERAIROTbuZ1vFXAKQAAAAAAAAAACh0KEhmT3L-zGjhEQCEbEfk5drxVwCkAAAAAAAAAAAodChIZz7p4vhk4REAhKCZBXHa8VcApAAAAAAAAAAAKHQoSGXIcDIIYOERAIXJFUnt2vFXAKQAAAAAAAAAACh0KEhmfG7N0FzhEQCGCakN7drxVwCkAAAAAAAAAAAodChIZZy4arhY4REAhQ878bna8VcApAAAAAAAAAAAKHQoSGa4BH9EVOERAIXbItzV2vFXAKQAAAAAAAAAACh0KEhlbse00FThEQCFdj-wOdrxVwCkAAAAAAAAAAAodChIZKL4lhxQ4REAhF5bI2XW8VcApAAAAAAAAAAAKHQoSGb5_aKYTOERAIfeCMJx1vFXAKQAAAAAAAAAACh0KEhkpTtCjEjhEQCGpt0mcdbxVwCkAAAAAAAAAAAodChIZvY4JmBE4REAhxj8KDHa8VcApAAAAAAAAAAAKHQoSGZOClBwROERAIQHEs1F2vFXAKQAAAAAAAAAACh0KEhnJmbm-EDhEQCEqTdnJdrxVwCkAAAAAAAAAAAodChIZ2XtAaRA4REAh8p_uVXe8VcApAAAAAAAAAAAKHQoSGUp2GRgQOERAIUdI19h3vFXAKQAAAAAAAAAACh0KEhn6G0bLDzhEQCG4qURIeLxVwCkAAAAAAAAAABACGAAyawokCiAKAwjQDxoHCNLtZRD_ASEAAAAAAADwPykAAAAAAAAAABgAEg8KCAitgO8HEP8BEKAfGAAaGgoHCP___wcQQBIICK2A7wcQ_wEYoB8gACgAIgIIAioSCAESBQj___8HGQAAAAAAAPA_EgAaITFXMml0OUFGT0h3ekVhM0N1MFNmSmRRR1lQSERITUdRYQ"?>
